start=new Date('2023-03-30T00:00:00.000Z').valueOf();
sats=[{"ECCENTRICITY":"0.00011250","RA_OF_ASC_NODE":"21.5328","MEAN_ELEMENT_THEORY":"SGP4","OBJECT_ID":"2021-104Q","FILE":"3874492","RCS_SIZE":"LARGE","MEAN_ANOMALY":"272.9199","CENTER_NAME":"EARTH","DECAY_DATE":null,"COUNTRY_CODE":"US","OBJECT_NAME":"STARLINK-3161","REV_AT_EPOCH":"7611","ARG_OF_PERICENTER":"87.1922","REF_FRAME":"TEME","SEMIMAJOR_AXIS":"6917.814","APOAPSIS":"540.458","LAUNCH_DATE":"2021-11-13","OBJECT_TYPE":"PAYLOAD","ELEMENT_SET_NO":"999","MEAN_MOTION_DDOT":"0.0000000000000","MEAN_MOTION":"15.08861617","EPHEMERIS_TYPE":"0","INCLINATION":"53.2163","PERIAPSIS":"538.901","SITE":"AFETR","TLE_LINE1":"1 49422U 21104Q   23088.22978946  .00006941  00000-0  45351-3 0  9998","PERIOD":"95.436","CLASSIFICATION_TYPE":"U","EPOCH":"2023-03-29T05:30:53.809344","TIME_SYSTEM":"UTC","TLE_LINE2":"2 49422  53.2163  21.5328 0001125  87.1922 272.9199 15.08861617 76119","GP_ID":"229103840","BSTAR":"0.00045351000000","MEAN_MOTION_DOT":"0.00006941","NORAD_CAT_ID":"49422"},{"MEAN_MOTION_DDOT":"0.0000000000000","APOAPSIS":"540.417","LAUNCH_DATE":"2021-11-13","OBJECT_TYPE":"PAYLOAD","ELEMENT_SET_NO":"999","ARG_OF_PERICENTER":"88.5327","REF_FRAME":"TEME","SEMIMAJOR_AXIS":"6917.859","REV_AT_EPOCH":"7609","OBJECT_NAME":"STARLINK-3149","DECAY_DATE":null,"COUNTRY_CODE":"US","MEAN_ANOMALY":"271.5779","CENTER_NAME":"EARTH","RA_OF_ASC_NODE":"22.2109","OBJECT_ID":"2021-104R","MEAN_ELEMENT_THEORY":"SGP4","FILE":"3874492","RCS_SIZE":"LARGE","ECCENTRICITY":"0.00010020","TLE_LINE2":"2 49423  53.2172  22.2109 0001002  88.5327 271.5779 15.08846987 76092","GP_ID":"229104592","MEAN_MOTION_DOT":"0.00002529","BSTAR":"0.00017686000000","NORAD_CAT_ID":"49423","EPOCH":"2023-03-29T01:53:38.463360","TIME_SYSTEM":"UTC","CLASSIFICATION_TYPE":"U","PERIOD":"95.437","TLE_LINE1":"1 49423U 21104R   23088.07891740  .00002529  00000-0  17686-3 0  9996","SITE":"AFETR","MEAN_MOTION":"15.08846987","EPHEMERIS_TYPE":"0","INCLINATION":"53.2172","PERIAPSIS":"539.031"},{"SITE":"AFETR","INCLINATION":"53.2168","PERIAPSIS":"538.670","MEAN_MOTION":"15.08859134","EPHEMERIS_TYPE":"0","PERIOD":"95.436","TLE_LINE1":"1 49424U 21104S   23088.22243586  .00008537  00000-0  55355-3 0  9993","CLASSIFICATION_TYPE":"U","NORAD_CAT_ID":"49424","TLE_LINE2":"2 49424  53.2168  21.5669 0001470  95.4811 264.6349 15.08859134 77191","BSTAR":"0.00055355000000","GP_ID":"229113999","MEAN_MOTION_DOT":"0.00008537","EPOCH":"2023-03-29T05:20:18.458304","TIME_SYSTEM":"UTC","FILE":"3874700","RCS_SIZE":"LARGE","MEAN_ELEMENT_THEORY":"SGP4","RA_OF_ASC_NODE":"21.5669","OBJECT_ID":"2021-104S","ECCENTRICITY":"0.00014700","COUNTRY_CODE":"US","DECAY_DATE":null,"CENTER_NAME":"EARTH","MEAN_ANOMALY":"264.6349","SEMIMAJOR_AXIS":"6917.822","REF_FRAME":"TEME","ARG_OF_PERICENTER":"95.4811","OBJECT_NAME":"STARLINK-3135","REV_AT_EPOCH":"7719","MEAN_MOTION_DDOT":"0.0000000000000","OBJECT_TYPE":"PAYLOAD","ELEMENT_SET_NO":"999","LAUNCH_DATE":"2021-11-13","APOAPSIS":"540.704"},{"MEAN_MOTION_DDOT":"0.0000000000000","ELEMENT_SET_NO":"999","OBJECT_TYPE":"PAYLOAD","LAUNCH_DATE":"2021-11-13","APOAPSIS":"540.540","SEMIMAJOR_AXIS":"6917.813","REF_FRAME":"TEME","ARG_OF_PERICENTER":"98.4714","REV_AT_EPOCH":"7610","OBJECT_NAME":"STARLINK-3139","COUNTRY_CODE":"US","DECAY_DATE":null,"CENTER_NAME":"EARTH","MEAN_ANOMALY":"261.6419","RCS_SIZE":"LARGE","FILE":"3874492","RA_OF_ASC_NODE":"22.2345","OBJECT_ID":"2021-104T","MEAN_ELEMENT_THEORY":"SGP4","ECCENTRICITY":"0.00012470","NORAD_CAT_ID":"49425","TLE_LINE2":"2 49425  53.2170  22.2345 0001247  98.4714 261.6419 15.08862202 76106","MEAN_MOTION_DOT":"0.00021128","GP_ID":"229104090","BSTAR":"0.00134080000000","TIME_SYSTEM":"UTC","EPOCH":"2023-03-29T01:49:43.085568","CLASSIFICATION_TYPE":"U","PERIOD":"95.436","TLE_LINE1":"1 49425U 21104T   23088.07619312  .00021128  00000-0  13408-2 0  9994","SITE":"AFETR","PERIAPSIS":"538.815","INCLINATION":"53.2170","EPHEMERIS_TYPE":"0","MEAN_MOTION":"15.08862202"},{"COUNTRY_CODE":"US","DECAY_DATE":null,"CENTER_NAME":"EARTH","MEAN_ANOMALY":"266.3736","FILE":"3874492","RCS_SIZE":"LARGE","RA_OF_ASC_NODE":"21.5995","MEAN_ELEMENT_THEORY":"SGP4","OBJECT_ID":"2021-104U","ECCENTRICITY":"0.00009400","MEAN_MOTION_DDOT":"0.0000000000000","OBJECT_TYPE":"PAYLOAD","ELEMENT_SET_NO":"999","LAUNCH_DATE":"2021-11-13","APOAPSIS":"540.274","SEMIMAJOR_AXIS":"6917.759","ARG_OF_PERICENTER":"93.7364","REF_FRAME":"TEME","OBJECT_NAME":"STARLINK-3114","REV_AT_EPOCH":"7611","PERIOD":"95.435","TLE_LINE1":"1 49426U 21104U   23088.21507021  .00021255  00000-0  13481-2 0  9996","SITE":"AFETR","INCLINATION":"53.2169","PERIAPSIS":"538.973","MEAN_MOTION":"15.08879821","EPHEMERIS_TYPE":"0","NORAD_CAT_ID":"49426","TLE_LINE2":"2 49426  53.2169  21.5995 0000940  93.7364 266.3736 15.08879821 76116","BSTAR":"0.00134810000000","GP_ID":"229104340","MEAN_MOTION_DOT":"0.00021255","EPOCH":"2023-03-29T05:09:42.066144","TIME_SYSTEM":"UTC","CLASSIFICATION_TYPE":"U"},{"COUNTRY_CODE":"US","DECAY_DATE":null,"CENTER_NAME":"EARTH","MEAN_ANOMALY":"287.9518","RCS_SIZE":"LARGE","FILE":"3874698","MEAN_ELEMENT_THEORY":"SGP4","RA_OF_ASC_NODE":"21.6484","OBJECT_ID":"2021-104V","ECCENTRICITY":"0.00010860","MEAN_MOTION_DDOT":"0.0000000000000","ELEMENT_SET_NO":"999","OBJECT_TYPE":"PAYLOAD","LAUNCH_DATE":"2021-11-13","APOAPSIS":"540.408","SEMIMAJOR_AXIS":"6917.791","ARG_OF_PERICENTER":"72.1592","REF_FRAME":"TEME","REV_AT_EPOCH":"7721","OBJECT_NAME":"STARLINK-3131","PERIOD":"95.436","TLE_LINE1":"1 49427U 21104V   23088.20403623  .00028496  00000-0  17999-2 0  9991","SITE":"AFETR","PERIAPSIS":"538.905","INCLINATION":"53.2161","EPHEMERIS_TYPE":"0","MEAN_MOTION":"15.08869117","NORAD_CAT_ID":"49427","GP_ID":"229113821","TLE_LINE2":"2 49427  53.2161  21.6484 0001086  72.1592 287.9518 15.08869117 77215","MEAN_MOTION_DOT":"0.00028496","BSTAR":"0.00179990000000","TIME_SYSTEM":"UTC","EPOCH":"2023-03-29T04:53:48.730272","CLASSIFICATION_TYPE":"U"},{"MEAN_MOTION":"15.08856123","EPHEMERIS_TYPE":"0","INCLINATION":"53.2164","PERIAPSIS":"538.815","SITE":"AFETR","TLE_LINE1":"1 49428U 21104W   23088.26018846  .00004410  00000-0  29487-3 0  9993","PERIOD":"95.437","CLASSIFICATION_TYPE":"U","EPOCH":"2023-03-29T06:14:40.282944","TIME_SYSTEM":"UTC","TLE_LINE2":"2 49428  53.2164  21.3956 0001273  91.7346 268.3792 15.08856123 76132","GP_ID":"229104843","BSTAR":"0.00029487000000","MEAN_MOTION_DOT":"0.00004410","NORAD_CAT_ID":"49428","ECCENTRICITY":"0.00012730","OBJECT_ID":"2021-104W","RA_OF_ASC_NODE":"21.3956","MEAN_ELEMENT_THEORY":"SGP4","FILE":"3874492","RCS_SIZE":"LARGE","MEAN_ANOMALY":"268.3792","CENTER_NAME":"EARTH","DECAY_DATE":null,"COUNTRY_CODE":"US","OBJECT_NAME":"STARLINK-3121","REV_AT_EPOCH":"7613","ARG_OF_PERICENTER":"91.7346","REF_FRAME":"TEME","SEMIMAJOR_AXIS":"6917.831","LAUNCH_DATE":"2021-11-13","APOAPSIS":"540.577","OBJECT_TYPE":"PAYLOAD","ELEMENT_SET_NO":"999","MEAN_MOTION_DDOT":"0.0000000000000"},{"LAUNCH_DATE":"2021-11-13","APOAPSIS":"540.603","OBJECT_TYPE":"PAYLOAD","ELEMENT_SET_NO":"999","MEAN_MOTION_DDOT":"0.0000000000000","OBJECT_NAME":"STARLINK-3138","REV_AT_EPOCH":"7730","ARG_OF_PERICENTER":"110.2747","REF_FRAME":"TEME","SEMIMAJOR_AXIS":"6917.892","MEAN_ANOMALY":"249.8377","CENTER_NAME":"EARTH","DECAY_DATE":null,"COUNTRY_CODE":"US","ECCENTRICITY":"0.00012230","OBJECT_ID":"2021-104Y","RA_OF_ASC_NODE":"18.3932","MEAN_ELEMENT_THEORY":"SGP4","FILE":"3874740","RCS_SIZE":"LARGE","EPOCH":"2023-03-29T22:17:45.416832","TIME_SYSTEM":"UTC","BSTAR":"0.00018237000000","TLE_LINE2":"2 49430  53.2167  18.3932 0001223 110.2747 249.8377 15.08836137 77301","GP_ID":"229114937","MEAN_MOTION_DOT":"0.00002615","NORAD_CAT_ID":"49430","CLASSIFICATION_TYPE":"U","TLE_LINE1":"1 49430U 21104Y   23088.92899788  .00002615  00000-0  18237-3 0  9997","PERIOD":"95.438","MEAN_MOTION":"15.08836137","EPHEMERIS_TYPE":"0","INCLINATION":"53.2167","PERIAPSIS":"538.911","SITE":"AFETR"},{"MEAN_MOTION_DDOT":"0.0000000000000","ELEMENT_SET_NO":"999","OBJECT_TYPE":"PAYLOAD","APOAPSIS":"540.400","LAUNCH_DATE":"2021-11-13","SEMIMAJOR_AXIS":"6917.904","ARG_OF_PERICENTER":"80.3826","REF_FRAME":"TEME","REV_AT_EPOCH":"7720","OBJECT_NAME":"STARLINK-3153","COUNTRY_CODE":"US","DECAY_DATE":null,"CENTER_NAME":"EARTH","MEAN_ANOMALY":"279.7269","RCS_SIZE":"LARGE","FILE":"3874712","MEAN_ELEMENT_THEORY":"SGP4","RA_OF_ASC_NODE":"21.5473","OBJECT_ID":"2021-104Z","ECCENTRICITY":"0.00009120","NORAD_CAT_ID":"49431","TLE_LINE2":"2 49431  53.2169  21.5473 0000912  80.3826 279.7269 15.08832396 77203","GP_ID":"229114334","BSTAR":"0.00088906000000","MEAN_MOTION_DOT":"0.00013887","TIME_SYSTEM":"UTC","EPOCH":"2023-03-29T05:27:00.395424","CLASSIFICATION_TYPE":"U","PERIOD":"95.438","TLE_LINE1":"1 49431U 21104Z   23088.22708791  .00013887  00000-0  88906-3 0  9997","SITE":"AFETR","PERIAPSIS":"539.138","INCLINATION":"53.2169","EPHEMERIS_TYPE":"0","MEAN_MOTION":"15.08832396"},{"CLASSIFICATION_TYPE":"U","TIME_SYSTEM":"UTC","EPOCH":"2023-03-29T21:27:28.219104","NORAD_CAT_ID":"49432","BSTAR":"0.00138610000000","TLE_LINE2":"2 49432  53.2169   8.5552 0001115 112.8062 247.3048 15.08844325 76363","GP_ID":"229137367","MEAN_MOTION_DOT":"0.00021843","PERIAPSIS":"538.961","INCLINATION":"53.2169","EPHEMERIS_TYPE":"0","MEAN_MOTION":"15.08844325","SITE":"AFETR","TLE_LINE1":"1 49432U 21104AA  23088.89407661  .00021843  00000-0  13861-2 0  9991","PERIOD":"95.437","OBJECT_NAME":"STARLINK-3158","REV_AT_EPOCH":"7636","SEMIMAJOR_AXIS":"6917.867","ARG_OF_PERICENTER":"112.8062","REF_FRAME":"TEME","ELEMENT_SET_NO":"999","OBJECT_TYPE":"PAYLOAD","APOAPSIS":"540.504","LAUNCH_DATE":"2021-11-13","MEAN_MOTION_DDOT":"0.0000000000000","ECCENTRICITY":"0.00011150","RCS_SIZE":"LARGE","FILE":"3874790","OBJECT_ID":"2021-104AA","RA_OF_ASC_NODE":"8.5552","MEAN_ELEMENT_THEORY":"SGP4","CENTER_NAME":"EARTH","MEAN_ANOMALY":"247.3048","COUNTRY_CODE":"US","DECAY_DATE":null}];
